[{"OBJECT_NAME":"OBJECT A","OBJECT_ID":"2025-013A","EPOCH":"2026-03-09T23:29:31.895232","MEAN_MOTION":15.29260221,"ECCENTRICITY":0.0010321,"INCLINATION":97.6364,"RA_OF_ASC_NODE":244.5149,"ARG_OF_PERICENTER":282.3775,"MEAN_ANOMALY":77.6309,"EPHEMERIS_TYPE":0,"CLASSIFICATION_TYPE":"U","NORAD_CAT_ID":62729,"ELEMENT_SET_NO":999,"REV_AT_EPOCH":6276,"BSTAR":0.0013206527,"MEAN_MOTION_DOT":0.00037616,"MEAN_MOTION_DDOT":0},{"OBJECT_NAME":"STARLINK-35243","OBJECT_ID":"2025-232M","EPOCH":"2026-03-09T12:07:09.055488","MEAN_MOTION":15.30197658,"ECCENTRICITY":0.00012324,"INCLINATION":53.159,"RA_OF_ASC_NODE":105.0214,"ARG_OF_PERICENTER":98.0949,"MEAN_ANOMALY":262.0192,"EPHEMERIS_TYPE":0,"CLASSIFICATION_TYPE":"U","NORAD_CAT_ID":66016,"ELEMENT_SET_NO":999,"REV_AT_EPOCH":2340,"BSTAR":0.00084491595,"MEAN_MOTION_DOT":0.00024746,"MEAN_MOTION_DDOT":0}]
